{"type": "FeatureCollection", "features": [ {"type": "Feature", "properties": {"norad_id": 66687, "name": "TRANSPORTER-15X", "group": "last-30-days", "lat": 14.38386126474249, "lon": 67.76909369380382, "alt_km": 512.1850125412293, "timestamp": "2025-12-24T03:53:28.360813+00:00", "meta": {"OBJECT_NAME": "TRANSPORTER-15X", "OBJECT_ID": "2025-276X", "EPOCH": "2025-12-23T18:19:38.446752", "MEAN_MOTION": 15.16723289, "ECCENTRICITY": 0.000811, "INCLINATION": 97.4384, "RA_OF_ASC_NODE": 69.2983, "ARG_OF_PERICENTER": 51.3384, "MEAN_ANOMALY": 308.8573, "EPHEMERIS_TYPE": 0, "CLASSIFICATION_TYPE": "U", "NORAD_CAT_ID": 66687, "ELEMENT_SET_NO": 999, "REV_AT_EPOCH": 379, "BSTAR": 0.00067748, "MEAN_MOTION_DOT": 0.0001324, "MEAN_MOTION_DDOT": 0}, "tle": {"line1": "1 66687U 25276X   25357.76363943  .00013240  00000+0  67748-3 0  9992", "line2": "2 66687  97.4384  69.2983 0008110  51.3384 308.8573 15.16723289  3798"}}, "geometry": {"type": "Point", "coordinates": [67.76909369380382, 14.38386126474249]}}, {"type": "Feature", "properties": {"norad_id": 66688, "name": "TRANSPORTER-15Y", "group": "last-30-days", "lat": 49.984424872730834, "lon": 60.762165195683714, "alt_km": 512.6245791536312, "timestamp": "2025-12-24T03:53:28.360823+00:00", "meta": {"OBJECT_NAME": "TRANSPORTER-15Y", "OBJECT_ID": "2025-276Y", "EPOCH": "2025-12-23T18:10:15.849696", "MEAN_MOTION": 15.1708979, "ECCENTRICITY": 0.0003751, "INCLINATION": 97.443, "RA_OF_ASC_NODE": 69.3226, "ARG_OF_PERICENTER": 244.9223, "MEAN_ANOMALY": 115.1621, "EPHEMERIS_TYPE": 0, "CLASSIFICATION_TYPE": "U", "NORAD_CAT_ID": 66688, "ELEMENT_SET_NO": 999, "REV_AT_EPOCH": 379, "BSTAR": 0.00048839, "MEAN_MOTION_DOT": 9.615e-05, "MEAN_MOTION_DDOT": 0}, "tle": {"line1": "1 66688U 25276Y   25357.75712789  .00009615  00000+0  48839-3 0  9999", "line2": "2 66688  97.4430  69.3226 0003751 244.9223 115.1621 15.17089790  3796"}}, "geometry": {"type": "Point", "coordinates": [60.762165195683714, 49.984424872730834]}}, {"type": "Feature", "properties": {"norad_id": 66689, "name": "TRANSPORTER-15Z", "group": "last-30-days", "lat": 59.73255304700987, "lon": -97.31177356607598, "alt_km": 487.1398510790241, "timestamp": "2025-12-24T03:53:28.360833+00:00", "meta": {"OBJECT_NAME": "TRANSPORTER-15Z", "OBJECT_ID": "2025-276Z", "EPOCH": "2025-12-22T21:27:46.425312", "MEAN_MOTION": 15.23073772, "ECCENTRICITY": 0.00272271, "INCLINATION": 97.4409, "RA_OF_ASC_NODE": 68.4858, "ARG_OF_PERICENTER": 260.8557, "MEAN_ANOMALY": 98.9599, "EPHEMERIS_TYPE": 0, "CLASSIFICATION_TYPE": "U", "NORAD_CAT_ID": 66689, "ELEMENT_SET_NO": 999, "REV_AT_EPOCH": 366, "BSTAR": 0.086131248, "MEAN_MOTION_DOT": 0.02294864, "MEAN_MOTION_DDOT": 0}, "tle": {"line1": "1 66689U 25276Z   25356.89428733  .02294864  00000+0  86131-1 0  9996", "line2": "2 66689  97.4409  68.4858 0027227 260.8557  98.9599 15.23073772  3663"}}, "geometry": {"type": "Point", "coordinates": [-97.31177356607598, 59.73255304700987]}}, {"type": "Feature", "properties": {"norad_id": 66690, "name": "TRANSPORTER-15AA", "group": "last-30-days", "lat": 49.55496720777943, "lon": 60.89083216061391, "alt_km": 512.7659257576961, "timestamp": "2025-12-24T03:53:28.360843+00:00", "meta": {"OBJECT_NAME": "TRANSPORTER-15AA", "OBJECT_ID": "2025-276AA", "EPOCH": "2025-12-23T18:10:22.283904", "MEAN_MOTION": 15.17068106, "ECCENTRICITY": 0.0003754, "INCLINATION": 97.439, "RA_OF_ASC_NODE": 69.3105, "ARG_OF_PERICENTER": 242.9015, "MEAN_ANOMALY": 117.1836, "EPHEMERIS_TYPE": 0, "CLASSIFICATION_TYPE": "U", "NORAD_CAT_ID": 66690, "ELEMENT_SET_NO": 999, "REV_AT_EPOCH": 379, "BSTAR": 0.00051607, "MEAN_MOTION_DOT": 0.00010159, "MEAN_MOTION_DDOT": 0}, "tle": {"line1": "1 66690U 25276AA  25357.75720236  .00010159  00000+0  51607-3 0  9990", "line2": "2 66690  97.4390  69.3105 0003754 242.9015 117.1836 15.17068106  3798"}}, "geometry": {"type": "Point", "coordinates": [60.89083216061391, 49.55496720777943]}}, {"type": "Feature", "properties": {"norad_id": 66691, "name": "TRANSPORTER-15AB", "group": "last-30-days", "lat": 61.31052871725619, "lon": 55.90238998859349, "alt_km": 510.64147324057467, "timestamp": "2025-12-24T03:53:28.360854+00:00", "meta": {"OBJECT_NAME": "TRANSPORTER-15AB", "OBJECT_ID": "2025-276AB", "EPOCH": "2025-12-23T18:07:16.840128", "MEAN_MOTION": 15.17311865, "ECCENTRICITY": 0.0003821, "INCLINATION": 97.4416, "RA_OF_ASC_NODE": 69.3209, "ARG_OF_PERICENTER": 245.6214, "MEAN_ANOMALY": 114.4621, "EPHEMERIS_TYPE": 0, "CLASSIFICATION_TYPE": "U", "NORAD_CAT_ID": 66691, "ELEMENT_SET_NO": 999, "REV_AT_EPOCH": 379, "BSTAR": 0.00059604, "MEAN_MOTION_DOT": 0.00011828, "MEAN_MOTION_DDOT": 0}, "tle": {"line1": "1 66691U 25276AB  25357.75505602  .00011828  00000+0  59604-3 0  9998", "line2": "2 66691  97.4416  69.3209 0003821 245.6214 114.4621 15.17311865  3794"}}, "geometry": {"type": "Point", "coordinates": [55.90238998859349, 61.31052871725619]}}, {"type": "Feature", "properties": {"norad_id": 66692, "name": "TRANSPORTER-15AC", "group": "last-30-days", "lat": 77.36515547908108, "lon": 34.06229494349361, "alt_km": 507.62354646504537, "timestamp": "2025-12-24T03:53:28.360864+00:00", "meta": {"OBJECT_NAME": "TRANSPORTER-15AC", "OBJECT_ID": "2025-276AC", "EPOCH": "2025-12-23T03:48:04.245408", "MEAN_MOTION": 15.17403594, "ECCENTRICITY": 0.00017836, "INCLINATION": 97.442, "RA_OF_ASC_NODE": 68.746, "ARG_OF_PERICENTER": 265.923, "MEAN_ANOMALY": 94.18, "EPHEMERIS_TYPE": 0, "CLASSIFICATION_TYPE": "U", "NORAD_CAT_ID": 66692, "ELEMENT_SET_NO": 999, "REV_AT_EPOCH": 370, "BSTAR": 0.00037104473, "MEAN_MOTION_DOT": 7.352e-05, "MEAN_MOTION_DDOT": 0}, "tle": {"line1": "1 66692U 25276AC  25357.15838247  .00007352  00000+0  37104-3 0  9995", "line2": "2 66692  97.4420  68.7460 0001783 265.9230  94.1800 15.17403594  3705"}}, "geometry": {"type": "Point", "coordinates": [34.06229494349361, 77.36515547908108]}}, {"type": "Feature", "properties": {"norad_id": 66693, "name": "TRANSPORTER-15AD", "group": "last-30-days", "lat": 71.97752012447465, "lon": 46.03679238132393, "alt_km": 510.80689482982234, "timestamp": "2025-12-24T03:53:28.360880+00:00", "meta": {"OBJECT_NAME": "TRANSPORTER-15AD", "OBJECT_ID": "2025-276AD", "EPOCH": "2025-12-23T14:53:14.957664", "MEAN_MOTION": 15.15704681, "ECCENTRICITY": 0.0007472, "INCLINATION": 97.4378, "RA_OF_ASC_NODE": 69.1805, "ARG_OF_PERICENTER": 58.0372, "MEAN_ANOMALY": 302.1586, "EPHEMERIS_TYPE": 0, "CLASSIFICATION_TYPE": "U", "NORAD_CAT_ID": 66693, "ELEMENT_SET_NO": 999, "REV_AT_EPOCH": 377, "BSTAR": -0.062402, "MEAN_MOTION_DOT": -0.01099919, "MEAN_MOTION_DDOT": 0}, "tle": {"line1": "1 66693U 25276AD  25357.62031201 -.01099919  00000+0 -62402-1 0  9993", "line2": "2 66693  97.4378  69.1805 0007472  58.0372 302.1586 15.15704681  3774"}}, "geometry": {"type": "Point", "coordinates": [46.03679238132393, 71.97752012447465]}}, {"type": "Feature", "properties": {"norad_id": 66694, "name": "YAM-9", "group": "last-30-days", "lat": 82.55329875791357, "lon": -19.86837641204143, "alt_km": 506.6643354256248, "timestamp": "2025-12-24T03:53:28.360892+00:00", "meta": {"OBJECT_NAME": "YAM-9", "OBJECT_ID": "2025-276AE", "EPOCH": "2025-12-22T15:05:57.357312", "MEAN_MOTION": 15.17554197, "ECCENTRICITY": 0.00015162, "INCLINATION": 97.4414, "RA_OF_ASC_NODE": 68.2259, "ARG_OF_PERICENTER": 262.5734, "MEAN_ANOMALY": 97.5327, "EPHEMERIS_TYPE": 0, "CLASSIFICATION_TYPE": "U", "NORAD_CAT_ID": 66694, "ELEMENT_SET_NO": 999, "REV_AT_EPOCH": 362, "BSTAR": 0.00067893264, "MEAN_MOTION_DOT": 0.00013577, "MEAN_MOTION_DDOT": 0}, "tle": {"line1": "1 66694U 25276AE  25356.62913608  .00013577  00000+0  67893-3 0  9997", "line2": "2 66694  97.4414  68.2259 0001516 262.5734  97.5327 15.17554197  3625"}}, "geometry": {"type": "Point", "coordinates": [-19.86837641204143, 82.55329875791357]}}, {"type": "Feature", "properties": {"norad_id": 66695, "name": "IRIDE FM1", "group": "last-30-days", "lat": 28.86655271906002, "lon": -106.11657449023684, "alt_km": 508.8071372646791, "timestamp": "2025-12-24T03:53:28.360902+00:00", "meta": {"OBJECT_NAME": "IRIDE FM1", "OBJECT_ID": "2025-276AF", "EPOCH": "2025-12-23T14:34:31.679040", "MEAN_MOTION": 15.1827608, "ECCENTRICITY": 0.0001371, "INCLINATION": 97.4401, "RA_OF_ASC_NODE": 69.2066, "ARG_OF_PERICENTER": 143.5712, "MEAN_ANOMALY": 216.5616, "EPHEMERIS_TYPE": 0, "CLASSIFICATION_TYPE": "U", "NORAD_CAT_ID": 66695, "ELEMENT_SET_NO": 999, "REV_AT_EPOCH": 377, "BSTAR": 0.00059562, "MEAN_MOTION_DOT": 0.00012151, "MEAN_MOTION_DDOT": 0}, "tle": {"line1": "1 66695U 25276AF  25357.60731110  .00012151  00000+0  59562-3 0  9994", "line2": "2 66695  97.4401  69.2066 0001371 143.5712 216.5616 15.18276080  3775"}}, "geometry": {"type": "Point", "coordinates": [-106.11657449023684, 28.86655271906002]}}, {"type": "Feature", "properties": {"norad_id": 66696, "name": "IRIDE FM2", "group": "last-30-days", "lat": 74.03122817459396, "lon": 42.54905433599268, "alt_km": 508.2670626665831, "timestamp": "2025-12-24T03:53:28.360913+00:00", "meta": {"OBJECT_NAME": "IRIDE FM2", "OBJECT_ID": "2025-276AG", "EPOCH": "2025-12-23T18:03:44.671104", "MEAN_MOTION": 15.17431172, "ECCENTRICITY": 0.0002546, "INCLINATION": 97.4387, "RA_OF_ASC_NODE": 69.314, "ARG_OF_PERICENTER": 264.6745, "MEAN_ANOMALY": 95.4198, "EPHEMERIS_TYPE": 0, "CLASSIFICATION_TYPE": "U", "NORAD_CAT_ID": 66696, "ELEMENT_SET_NO": 999, "REV_AT_EPOCH": 379, "BSTAR": 0.00053645, "MEAN_MOTION_DOT": 0.00010673, "MEAN_MOTION_DDOT": 0}, "tle": {"line1": "1 66696U 25276AG  25357.75260036  .00010673  00000+0  53645-3 0  9998", "line2": "2 66696  97.4387  69.3140 0002546 264.6745  95.4198 15.17431172  3794"}}, "geometry": {"type": "Point", "coordinates": [42.54905433599268, 74.03122817459396]}}]}